start=new Date('2022-03-26T00:00:00.000Z').valueOf();
sats=[{"CLASSIFICATION_TYPE":"U","MEAN_MOTION_DOT":"0.00022626","OBJECT_NAME":"STARLINK-3243","OBJECT_TYPE":"PAYLOAD","REV_AT_EPOCH":"369","PERIAPSIS":"347.885","NORAD_CAT_ID":"51116","INCLINATION":"53.2124","BSTAR":"0.00016522000000","EPHEMERIS_TYPE":"0","OBJECT_ID":"2022-005N","REF_FRAME":"TEME","ARG_OF_PERICENTER":"19.3025","MEAN_MOTION":"15.73194138","ELEMENT_SET_NO":"999","RCS_SIZE":"LARGE","SITE":"AFETR","APOAPSIS":"351.669","MEAN_MOTION_DDOT":"0.0000000000000","SEMIMAJOR_AXIS":"6727.912","MEAN_ELEMENT_THEORY":"SGP4","RA_OF_ASC_NODE":"310.1615","MEAN_ANOMALY":"350.2228","TIME_SYSTEM":"UTC","TLE_LINE1":"1 51116U 22005N   22084.58334491  .00022626  00000-0  16522-3 0  9993","DECAY_DATE":null,"ECCENTRICITY":"0.00028120","PERIOD":"91.534","TLE_LINE2":"2 51116  53.2124 310.1615 0002812  19.3025 350.2228 15.73194138  3695","FILE":"3373822","CENTER_NAME":"EARTH","GP_ID":"199665609","COUNTRY_CODE":"US","LAUNCH_DATE":"2022-01-19","EPOCH":"2022-03-25T14:00:01.000224"},{"OBJECT_TYPE":"PAYLOAD","MEAN_MOTION_DOT":"-0.00065469","CLASSIFICATION_TYPE":"U","OBJECT_NAME":"STARLINK-3391","BSTAR":"-0.00046485000000","INCLINATION":"53.2142","NORAD_CAT_ID":"51117","PERIAPSIS":"347.558","REV_AT_EPOCH":"369","MEAN_MOTION":"15.73233732","REF_FRAME":"TEME","ARG_OF_PERICENTER":"12.0295","EPHEMERIS_TYPE":"0","OBJECT_ID":"2022-005P","RCS_SIZE":"LARGE","ELEMENT_SET_NO":"999","MEAN_MOTION_DDOT":"0.0000000000000","APOAPSIS":"351.770","SITE":"AFETR","RA_OF_ASC_NODE":"310.1509","SEMIMAJOR_AXIS":"6727.799","MEAN_ELEMENT_THEORY":"SGP4","TLE_LINE2":"2 51117  53.2142 310.1509 0003131  12.0295   2.5297 15.73233732  3699","PERIOD":"91.531","DECAY_DATE":null,"ECCENTRICITY":"0.00031310","TLE_LINE1":"1 51117U 22005P   22084.58334491 -.00065469  00000-0 -46485-3 0  9999","TIME_SYSTEM":"UTC","MEAN_ANOMALY":"2.5297","EPOCH":"2022-03-25T14:00:01.000224","LAUNCH_DATE":"2022-01-19","COUNTRY_CODE":"US","GP_ID":"199666267","CENTER_NAME":"EARTH","FILE":"3373822"},{"LAUNCH_DATE":"2022-01-19","COUNTRY_CODE":"US","EPOCH":"2022-03-25T20:00:01.000224","GP_ID":"199670712","CENTER_NAME":"EARTH","FILE":"3374065","TLE_LINE2":"2 51118  53.2132 308.9200 0003632   5.4022 342.6276 15.73259291 11672","PERIOD":"91.530","ECCENTRICITY":"0.00036320","DECAY_DATE":null,"TLE_LINE1":"1 51118U 22005Q   22084.83334491 -.00049209  00000-0 -34719-3 0  9999","MEAN_ANOMALY":"342.6276","TIME_SYSTEM":"UTC","RA_OF_ASC_NODE":"308.9200","SEMIMAJOR_AXIS":"6727.726","MEAN_ELEMENT_THEORY":"SGP4","MEAN_MOTION_DDOT":"0.0000000000000","APOAPSIS":"352.035","SITE":"AFETR","RCS_SIZE":"LARGE","ELEMENT_SET_NO":"999","MEAN_MOTION":"15.73259291","ARG_OF_PERICENTER":"5.4022","REF_FRAME":"TEME","OBJECT_ID":"2022-005Q","EPHEMERIS_TYPE":"0","BSTAR":"-0.00034719000000","INCLINATION":"53.2132","NORAD_CAT_ID":"51118","PERIAPSIS":"347.148","REV_AT_EPOCH":"1167","OBJECT_TYPE":"PAYLOAD","CLASSIFICATION_TYPE":"U","MEAN_MOTION_DOT":"-0.00049209","OBJECT_NAME":"STARLINK-3394"},{"BSTAR":"-0.00014402000000","NORAD_CAT_ID":"51119","PERIAPSIS":"347.895","REV_AT_EPOCH":"1163","INCLINATION":"53.2132","OBJECT_TYPE":"PAYLOAD","MEAN_MOTION_DOT":"-0.00020800","OBJECT_NAME":"STARLINK-3390","CLASSIFICATION_TYPE":"U","RCS_SIZE":"LARGE","ELEMENT_SET_NO":"999","MEAN_MOTION":"15.73213446","OBJECT_ID":"2022-005R","EPHEMERIS_TYPE":"0","REF_FRAME":"TEME","ARG_OF_PERICENTER":"10.7607","RA_OF_ASC_NODE":"310.1494","MEAN_ELEMENT_THEORY":"SGP4","SEMIMAJOR_AXIS":"6727.857","MEAN_MOTION_DDOT":"0.0000000000000","APOAPSIS":"351.549","SITE":"AFETR","CENTER_NAME":"EARTH","LAUNCH_DATE":"2022-01-19","EPOCH":"2022-03-25T14:00:01.000224","COUNTRY_CODE":"US","GP_ID":"199640315","FILE":"3373771","ECCENTRICITY":"0.00027160","DECAY_DATE":null,"TLE_LINE2":"2 51119  53.2132 310.1494 0002716  10.7607   4.4063 15.73213446 11638","PERIOD":"91.532","MEAN_ANOMALY":"4.4063","TIME_SYSTEM":"UTC","TLE_LINE1":"1 51119U 22005R   22084.58334491 -.00020800  00000-0 -14402-3 0  9995"},{"APOAPSIS":"351.662","SITE":"AFETR","MEAN_MOTION_DDOT":"0.0000000000000","MEAN_ELEMENT_THEORY":"SGP4","SEMIMAJOR_AXIS":"6727.782","RA_OF_ASC_NODE":"310.1476","TLE_LINE1":"1 51120U 22005S   22084.58334491 -.00081240  00000-0 -57885-3 0  9994","MEAN_ANOMALY":"2.2743","TIME_SYSTEM":"UTC","PERIOD":"91.531","TLE_LINE2":"2 51120  53.2144 310.1476 0002995  14.1527   2.2743 15.73239720  3692","ECCENTRICITY":"0.00029950","DECAY_DATE":null,"FILE":"3373822","GP_ID":"199665941","COUNTRY_CODE":"US","LAUNCH_DATE":"2022-01-19","EPOCH":"2022-03-25T14:00:01.000224","CENTER_NAME":"EARTH","CLASSIFICATION_TYPE":"U","MEAN_MOTION_DOT":"-0.00081240","OBJECT_NAME":"STARLINK-3398","OBJECT_TYPE":"PAYLOAD","INCLINATION":"53.2144","PERIAPSIS":"347.632","REV_AT_EPOCH":"369","NORAD_CAT_ID":"51120","BSTAR":"-0.00057885000000","ARG_OF_PERICENTER":"14.1527","REF_FRAME":"TEME","EPHEMERIS_TYPE":"0","OBJECT_ID":"2022-005S","MEAN_MOTION":"15.73239720","ELEMENT_SET_NO":"999","RCS_SIZE":"LARGE"},{"FILE":"3373822","EPOCH":"2022-03-25T14:00:01.000224","LAUNCH_DATE":"2022-01-19","COUNTRY_CODE":"US","GP_ID":"199666159","CENTER_NAME":"EARTH","TLE_LINE1":"1 51121U 22005T   22084.58334491 -.00033913  00000-0 -23821-3 0  9992","MEAN_ANOMALY":"4.5354","TIME_SYSTEM":"UTC","TLE_LINE2":"2 51121  53.2143 310.1521 0003421   9.4300   4.5354 15.73186790  3695","PERIOD":"91.534","ECCENTRICITY":"0.00034210","DECAY_DATE":null,"MEAN_ELEMENT_THEORY":"SGP4","SEMIMAJOR_AXIS":"6727.933","RA_OF_ASC_NODE":"310.1521","APOAPSIS":"352.099","SITE":"AFETR","MEAN_MOTION_DDOT":"0.0000000000000","ELEMENT_SET_NO":"999","RCS_SIZE":"LARGE","REF_FRAME":"TEME","ARG_OF_PERICENTER":"9.4300","OBJECT_ID":"2022-005T","EPHEMERIS_TYPE":"0","MEAN_MOTION":"15.73186790","INCLINATION":"53.2143","NORAD_CAT_ID":"51121","REV_AT_EPOCH":"369","PERIAPSIS":"347.496","BSTAR":"-0.00023821000000","CLASSIFICATION_TYPE":"U","MEAN_MOTION_DOT":"-0.00033913","OBJECT_NAME":"STARLINK-3399","OBJECT_TYPE":"PAYLOAD"},{"MEAN_ANOMALY":"2.4791","TIME_SYSTEM":"UTC","TLE_LINE1":"1 51122U 22005U   22084.58334491  .00035791  00000-0  25821-3 0  9999","DECAY_DATE":null,"ECCENTRICITY":"0.00027630","PERIOD":"91.533","TLE_LINE2":"2 51122  53.2140 310.1485 0002763  13.3195   2.4791 15.73209824  3692","FILE":"3373822","CENTER_NAME":"EARTH","GP_ID":"199665832","COUNTRY_CODE":"US","LAUNCH_DATE":"2022-01-19","EPOCH":"2022-03-25T14:00:01.000224","APOAPSIS":"351.591","SITE":"AFETR","MEAN_MOTION_DDOT":"0.0000000000000","SEMIMAJOR_AXIS":"6727.867","MEAN_ELEMENT_THEORY":"SGP4","RA_OF_ASC_NODE":"310.1485","OBJECT_ID":"2022-005U","EPHEMERIS_TYPE":"0","REF_FRAME":"TEME","ARG_OF_PERICENTER":"13.3195","MEAN_MOTION":"15.73209824","ELEMENT_SET_NO":"999","RCS_SIZE":"LARGE","MEAN_MOTION_DOT":"0.00035791","OBJECT_NAME":"STARLINK-3373","CLASSIFICATION_TYPE":"U","OBJECT_TYPE":"PAYLOAD","PERIAPSIS":"347.873","REV_AT_EPOCH":"369","NORAD_CAT_ID":"51122","INCLINATION":"53.2140","BSTAR":"0.00025821000000"},{"FILE":"3373822","CENTER_NAME":"EARTH","LAUNCH_DATE":"2022-01-19","COUNTRY_CODE":"US","EPOCH":"2022-03-25T14:00:01.000224","GP_ID":"199665720","MEAN_ANOMALY":"7.0842","TIME_SYSTEM":"UTC","TLE_LINE1":"1 51123U 22005V   22084.58334491  .00026350  00000-0  19153-3 0  9992","ECCENTRICITY":"0.00031240","DECAY_DATE":null,"TLE_LINE2":"2 51123  53.2144 310.1458 0003124  10.0151   7.0842 15.73202268  3698","PERIOD":"91.533","SEMIMAJOR_AXIS":"6727.889","MEAN_ELEMENT_THEORY":"SGP4","RA_OF_ASC_NODE":"310.1458","SITE":"AFETR","APOAPSIS":"351.855","MEAN_MOTION_DDOT":"0.0000000000000","ELEMENT_SET_NO":"999","RCS_SIZE":"LARGE","OBJECT_ID":"2022-005V","EPHEMERIS_TYPE":"0","REF_FRAME":"TEME","ARG_OF_PERICENTER":"10.0151","MEAN_MOTION":"15.73202268","NORAD_CAT_ID":"51123","REV_AT_EPOCH":"369","PERIAPSIS":"347.652","INCLINATION":"53.2144","BSTAR":"0.00019153000000","MEAN_MOTION_DOT":"0.00026350","OBJECT_NAME":"STARLINK-3392","CLASSIFICATION_TYPE":"U","OBJECT_TYPE":"PAYLOAD"},{"MEAN_MOTION_DDOT":"0.0000000000000","APOAPSIS":"420.661","SITE":"AFETR","RA_OF_ASC_NODE":"310.4412","SEMIMAJOR_AXIS":"6797.837","MEAN_ELEMENT_THEORY":"SGP4","TLE_LINE2":"2 51124  53.2161 310.4412 0001411  59.1756 291.3311 15.48982997 11653","PERIOD":"92.964","DECAY_DATE":null,"ECCENTRICITY":"0.00014110","TLE_LINE1":"1 51124U 22005W   22084.83334491 -.00064988  00000-0 -11837-2 0  9992","MEAN_ANOMALY":"291.3311","TIME_SYSTEM":"UTC","COUNTRY_CODE":"US","LAUNCH_DATE":"2022-01-19","EPOCH":"2022-03-25T20:00:01.000224","GP_ID":"199670767","CENTER_NAME":"EARTH","FILE":"3374068","OBJECT_TYPE":"PAYLOAD","MEAN_MOTION_DOT":"-0.00064988","OBJECT_NAME":"STARLINK-3389","CLASSIFICATION_TYPE":"U","BSTAR":"-0.00118370000000","INCLINATION":"53.2161","NORAD_CAT_ID":"51124","PERIAPSIS":"418.743","REV_AT_EPOCH":"1165","MEAN_MOTION":"15.48982997","ARG_OF_PERICENTER":"59.1756","REF_FRAME":"TEME","OBJECT_ID":"2022-005W","EPHEMERIS_TYPE":"0","RCS_SIZE":"LARGE","ELEMENT_SET_NO":"999"},{"MEAN_ELEMENT_THEORY":"SGP4","SEMIMAJOR_AXIS":"6797.265","RA_OF_ASC_NODE":"310.4602","SITE":"AFETR","APOAPSIS":"420.126","MEAN_MOTION_DDOT":"0.0000000000000","FILE":"3374068","CENTER_NAME":"EARTH","GP_ID":"199671270","LAUNCH_DATE":"2022-01-19","COUNTRY_CODE":"US","EPOCH":"2022-03-25T20:00:01.000224","MEAN_ANOMALY":"203.8067","TIME_SYSTEM":"UTC","TLE_LINE1":"1 51125U 22005X   22084.83334491 -.00340544  00000-0 -64148-2 0  9991","ECCENTRICITY":"0.00014660","DECAY_DATE":null,"PERIOD":"92.952","TLE_LINE2":"2 51125  53.2145 310.4602 0001466  35.6230 203.8067 15.49178513 11651","PERIAPSIS":"418.133","REV_AT_EPOCH":"1165","NORAD_CAT_ID":"51125","INCLINATION":"53.2145","BSTAR":"-0.00641480000000","MEAN_MOTION_DOT":"-0.00340544","OBJECT_NAME":"STARLINK-3387","CLASSIFICATION_TYPE":"U","OBJECT_TYPE":"PAYLOAD","ELEMENT_SET_NO":"999","RCS_SIZE":"LARGE","EPHEMERIS_TYPE":"0","OBJECT_ID":"2022-005X","REF_FRAME":"TEME","ARG_OF_PERICENTER":"35.6230","MEAN_MOTION":"15.49178513"}];
